FLOCK 4G-27             
1 62641U 25009AJ  26068.75406453  .00012587  00000+0  47455-3 0  9991
2 62641  97.3976 150.8631 0000756 322.4974  37.6212 15.27199247 63710
STARLINK-36451          
1 67339U 26003F   26067.51845920  .00030584  00000+0  11161-2 0  9995
2 67339  43.0010 233.7783 0001494 268.3388  91.7293 15.27586134  8648
